{
  "hyakumeizans": [
    {
      "name": "利尻山",
      "yomi": "りしりざん",
      "name_en": "Mt. Rishirizan",
      "elevation": "1721",
      "lat": "45.178583",
      "lon": "141.242028",
      "detail": ""
    },
    {
      "name": "羅臼岳",
      "yomi": "らうすだけ",
      "name_en": "Mt. Rausudake",
      "elevation": "1661",
      "lat": "44.075778",
      "lon": "145.122333",
      "detail": ""
    },
    {
      "name": "斜里岳",
      "yomi": "しゃりだけ",
      "name_en": "Mt. Sharidake",
      "elevation": "1547",
      "lat": "43.765528",
      "lon": "144.717667",
      "detail": "斜里岳（しゃりだけ）は北海道の知床半島にある火山。標高は1,547m。斜里岳道立自然公園に属し、日本百名山に選定されている。清里町の観光スポットの一つである。 \r\n古くはアイヌ語でオンネヌプリ（年老いた山）と呼んでいた。シャリとはアイヌ語で「葦の生えた湿原」の意。 \r\n山頂部は斜里岳、南斜里岳、西峰からなる。オホーツク富士、斜里富士とも呼ばれる。二等三角点名は「斜里岳」。 \r\n火山の基底は直径約12km、山体比高950m。活動時期は約30万&#12316;25万年前。中央火山は溶岩円頂丘。山頂には6個の爆裂火口がある。"
    },
    {
      "name": "雌阿寒岳",
      "yomi": "めあかんだけ",
      "name_en": "Mt. Meakandake",
      "elevation": "1499",
      "lat": "43.38667",
      "lon": "144.008833",
      "detail": ""
    },
    {
      "name": "羊蹄山",
      "yomi": "ようていざん",
      "name_en": "Mt. Youteizan",
      "elevation": "1898",
      "lat": "42.826611",
      "lon": "140.811361",
      "detail": "別名は「後方羊蹄山」（しりべしやま）、「蝦夷富士」（えぞふじ）など。かつて「マッカリヌプリ」と呼ばれていた。"
    },
    {
      "name": "大雪山",
      "yomi": "たいせつざん",
      "name_en": "Mt. Taisetsuzan",
      "elevation": "2290.89",
      "lat": "43.663556",
      "lon": "142.854194",
      "detail": "北海道・大雪山系の最高峰\r\n縦走（旭岳～黒岳）"
    },
    {
      "name": "トムラウシ山",
      "yomi": "とむらうしやま",
      "name_en": "Mt. Tomuraushiyama",
      "elevation": "2141",
      "lat": "43.527167",
      "lon": "142.848667",
      "detail": "トムラウシ温泉と短縮路登山口からは日帰りの人と南沼野営指定地に宿泊する人がいる。登山口にはトイレ（短縮路はバイオトイレ）がある。また大雪山と十勝岳連峰を縦走する人も登る。クチャンベツ登山口から沼の原経由コースは林道崩壊のため通行止。天人峡温泉から登る人もいる。短縮路からは登り５時間超はかかり、日帰りは健脚者。途中のトムラウシ公園は素晴らしい。\r\nトムラウシ南沼野営指定地もキャンプ地として素晴らしく花が咲き乱れている。しかしトイレが無く、岩陰に排泄物やティッシュが散乱している。携帯トイレブースが２基あるので、携帯トイレを使って排泄物を持ち帰えることをお願いしている。携帯トイレ回収ボックスは短縮路登山口とトムラウシ温泉の公衆トイレに設置してある。\r\nトムラウシ温泉「東大雪荘」で携帯トイレを販売している。"
    },
    {
      "name": "十勝岳",
      "yomi": "とかちだけ",
      "name_en": "Mt. Tokachidake",
      "elevation": "2077",
      "lat": "43.418",
      "lon": "142.686444",
      "detail": "　十勝岳の頂上には、浄土真宗の「光顔巍々(こうげんぎぎ)」と書かれた大理石柱が昭和17年から突き建てられています。「かみふらのの郷土をさぐる会機関誌」の左側11号の14番記事によると、「昭和十二年二月二十八日西本願寺第二十三世法主大谷光照貌下が来村し三月一日十勝岳にスキー登頂され、山岳スキーを楽しまれると共に十勝岳の大自然に満足される。二日後の三月三日にも聞信寺に御立寄り光栄に浴した時に、門上浄照師は十勝岳を仏教の霊山としての開発に積年の悲願と努力を申し上げ、十勝岳山頂の霊とすべき碑に光顔巍々の文字を所望し揮毫を懇願申し上げたところ、大谷光照貌下は永年の御苦労を讃えながら御快諾をされたのです。大谷光照貌下が揮毫された書は、同年三月末に聞信寺に送付されてまいりました。その書には墨跡あざやか『光顔巍々』とありました。」とあります。今にして思えば、アイヌの神の地にいかがなものかと思います。\r\n\r\n　（参考：「かみふらのの郷土をさぐる会機関誌」の左側11号の14番記事⇒）　　\r\n　　http://www.town.kamifurano.hokkaido.jp/hp/saguru/1111nakamura.htm\r\n　\r\n　"
    },
    {
      "name": "幌尻岳",
      "yomi": "ぽろしりだけ",
      "name_en": "Mt. Poroshiridake",
      "elevation": "2052.8",
      "lat": "42.719472",
      "lon": "142.682889",
      "detail": ""
    },
    {
      "name": "岩木山",
      "yomi": "いわきさん",
      "name_en": "Mt. Iwakisan",
      "elevation": "1624.7",
      "lat": "40.656",
      "lon": "140.303194",
      "detail": "青森県最高峰。旧暦8月1日にお山参詣の行事があり、津軽一円から集落ごとにお参りがある。朔日山（ついたちやま）のご来光を山頂から拝む。\r\n【古い伝承】\r\n蝦夷征伐の命を受けた坂上田村麻呂は、この地まで進んで来た時、神々の力を借りて平定しようと、山頂の岩木山奥の宮に対し、それまであった下居宮（おりいのみや）を北の十腰内（とこしない）に再建してここに岩木山大権現を祀った。神仏を同一視する本地垂迹（ほんじすいじゃく）がもてはやされた頃で、中央岩木山を阿弥陀様、南の鳥海山を薬師様、北の巌鬼山を観音様とする三位一体の信仰をするようになったのである。\r\nところが、下居宮から巖鬼山へ登山する者の間にケガ人や神かくしに遭う人が続出したので、寛治五年（1091）、神のお告げによって下居宮と十腰内赤倉口にあった岩木山光明院百沢寺を南麓に移した。これが現在百沢にある岩木山神社である。（青森山岳風土記・山田耕一郎1979より）"
    },
    {
      "name": "八甲田大岳",
      "yomi": "はっこうだおおだけ",
      "name_en": "Mt. Hakkoudaoodake",
      "elevation": "1584.61",
      "lat": "40.658806",
      "lon": "140.877306",
      "detail": ""
    },
    {
      "name": "八幡平",
      "yomi": "はちまんたい",
      "name_en": "Mt. Hachimantai",
      "elevation": "1613.3",
      "lat": "39.957778",
      "lon": "140.854",
      "detail": ""
    },
    {
      "name": "岩手山",
      "yomi": "いわてさん",
      "name_en": "Mt. Iwatesan",
      "elevation": "2038.2",
      "lat": "39.8525",
      "lon": "141.000944",
      "detail": ""
    },
    {
      "name": "早池峰山",
      "yomi": "はやちねさん",
      "name_en": "Mt. Hayachinesan",
      "elevation": "1917",
      "lat": "39.558667",
      "lon": "141.488667",
      "detail": ""
    },
    {
      "name": "蔵王山",
      "yomi": "ざおうさん",
      "name_en": "Mt. Zaousan",
      "elevation": "1841",
      "lat": "38.143528",
      "lon": "140.439944",
      "detail": "蔵王山という山はない。熊野岳や刈田岳などの総称として使っている。"
    },
    {
      "name": "鳥海山",
      "yomi": "ちょうかいさん",
      "name_en": "Mt. Choukaisan",
      "elevation": "2236",
      "lat": "39.09925",
      "lon": "140.048833",
      "detail": ""
    },
    {
      "name": "月山",
      "yomi": "がっさん",
      "name_en": "Mt. Gassan",
      "elevation": "1984",
      "lat": "38.549028",
      "lon": "140.026917",
      "detail": ""
    },
    {
      "name": "大朝日岳",
      "yomi": "おおあさひだけ",
      "name_en": "Mt. Ooasahidake",
      "elevation": "1870.3",
      "lat": "38.260444",
      "lon": "139.922194",
      "detail": ""
    },
    {
      "name": "飯豊山",
      "yomi": "いいでさん",
      "name_en": "Mt. Iidesan",
      "elevation": "2105",
      "lat": "37.854917",
      "lon": "139.706972",
      "detail": "長大な尾根の縦走が楽しい。豊かな水は銘酒を育てます。東北一の名峰だと思います。"
    },
    {
      "name": "西吾妻山",
      "yomi": "にしあづまやま",
      "name_en": "Mt. Nishiadumayama",
      "elevation": "2035",
      "lat": "37.738278",
      "lon": "140.140833",
      "detail": "日本百名山・吾妻山（吾妻連峰）の最高峰。\r\n山頂は樹林に囲まれ展望は無い。"
    },
    {
      "name": "安達太良山",
      "yomi": "あだたらやま",
      "name_en": "Mt. Adatarayama",
      "elevation": "1700",
      "lat": "37.621083",
      "lon": "140.287472",
      "detail": "安達太良山は磐梯朝日国立公園の南端に位置し那須火山帯に属する安達太良連峰の山です。\r\n安達太良連峰には他に鬼面山、箕輪山、鉄山、船明神山、安達太良山、前ヶ岳、和尚山と連なっていて、登山口は表登山口、奥岳登山口、塩沢登山口、野地登山口、横向登山口、沼尻登山口、母成登山口、石筵登山口があります。\r\n\r\n登山は安達太良スキー場のある奥岳からで、ゴンドラリフトを利用して薬師岳経由で山頂へ登り、温泉のある営業小屋で知られるくろがね小屋（通年）を経由して奥岳に下山する周遊ルートが一般的です。\r\n母成登山口と石筵登山口には温泉がありませんが、他の登山口には温泉旅館があります。\r\n\r\n縦走路には鉄山避難小屋（水場、トイレはありません）が連峰の中央部にあります。"
    },
    {
      "name": "磐梯山",
      "yomi": "ばんだいさん",
      "name_en": "Mt. Bandaisan",
      "elevation": "1816",
      "lat": "37.601083",
      "lon": "140.072222",
      "detail": ""
    },
    {
      "name": "那須岳",
      "yomi": "なすだけ",
      "name_en": "Mt. Nasudake",
      "elevation": "1915",
      "lat": "37.12475",
      "lon": "139.962806",
      "detail": "　栃木百名山\r\n　那須岳の主峰、茶臼岳\r\n　5月上旬ぐらいまで残雪が残る。\r\n　5月下旬から6月初旬には日の出平でミネザクラが満開になる。\r\n　紅葉は10月上旬には見事な紅葉に出会える。"
    },
    {
      "name": "男体山",
      "yomi": "なんたいさん",
      "name_en": "Mt. Nantaisan",
      "elevation": "2486",
      "lat": "36.765056",
      "lon": "139.490917",
      "detail": "★霊峰男体山の登拝期間は、毎年5月5日から10月25日までです。\r\n 　⇒2019年は4月25日から11月11日まで登山可能とのこと（念のため最新情報は神社HP参照）\r\n\r\n　冬山は、入山禁止です。\r\n男体山は、二荒山神社の境内地です。\r\n　無断で入らないようにしてください！\r\nhttp://www.futarasan.jp/index.shtml\r\n神社HP2019年4月24日記事より\r\nhttp://www.futarasan.jp/cgi-bin/imgsys/image.cgi?2:15270:0:0\r\n〇お知らせ〇\r\n　男体山の登山期間は、本年より「4月25日から11月11日まで」に変わりました。登拝期間中、毎日朝6時に開門します。\r\n　5月上旬までに登山される方は、必ずアイゼンをお持ちください。\r\n　男体山は二荒山神社の境内になります。\r\n　登山期間など必ずお守りください。"
    },
    {
      "name": "奥白根山",
      "yomi": "おくしらねさん",
      "name_en": "Mt. Okushiranesan",
      "elevation": "2578",
      "lat": "36.798639",
      "lon": "139.375917",
      "detail": "日本百名山、新花の百名山、関東百名山、栃木百名山、群馬百名山に選定されている。\r\n群馬県の草津白根山に対して日光白根山（奥白根山）と呼ばれている。\r\n日光白根山（奥白根山、五色山、前白根山、座禅山、白根隠山等の山々。主峰は奥白根山です。）\r\n関東以北の最高峰でもあります。\r\n頂上には二等三角点があります。\r\n10年程前にはシラネアオイが見事でしたが、現在ではシカの食害があり少なくなりました。\r\n菅沼コース、湯元コース、金精峠コース、丸沼からのゴンドラに乗ってのコースの４コースがあるが菅沼コースが一般的です。今は小学生から多くの人達がゴンドラに乗ってやってきます。"
    },
    {
      "name": "会津駒ヶ岳",
      "yomi": "あいづこまがだけ",
      "name_en": "Mt. Aidukomagadake",
      "elevation": "2133",
      "lat": "37.0475",
      "lon": "139.353694",
      "detail": "奥会津では登山者が多い山で、山頂直下にある駒の小屋に泊まって駒ヶ岳から中門岳へ続く高層湿原を楽しめます。\r\nこの付近はコバイケイソウの大群落やハクサンコザクラの群落があり、７月中旬には花の山として人気がありますが、９月下旬からは草紅葉も素晴らしい山です。"
    },
    {
      "name": "越後駒ヶ岳",
      "yomi": "えちごこまがたけ",
      "name_en": "Mt. Echigokomagatake",
      "elevation": "2003",
      "lat": "37.123611",
      "lon": "139.075111",
      "detail": ""
    },
    {
      "name": "平ヶ岳",
      "yomi": "ひらがだけ",
      "name_en": "Mt. Hiragadake",
      "elevation": "2141",
      "lat": "37.001944",
      "lon": "139.170944",
      "detail": "通常の登山ルートは国道３２５号の鷹ノ巣からとなります。\r\n鷹ノ巣の登山口には駐車場（約２０台）とトイレがあります。\r\n水場は渡渉する下台倉沢、台倉山から樹林帯へ入った台倉清水、池ノ岳登りに差し掛かる前の白沢清水、頂上付近の平ヶ岳沢源頭です。\r\nこのルートは登り７時間、下り５時間の長丁場となりますが唯一の正規ルートです。\r\n他に中ノ岐林道を送迎してもらう非正規の宮様ルートとよばれる裏道があり、こちらは民宿のバスで送迎してもらって登り３時間で山頂へ出られます。"
    },
    {
      "name": "巻機山",
      "yomi": "まきはたやま",
      "name_en": "Mt. Makihatayama",
      "elevation": "1967",
      "lat": "36.978611",
      "lon": "138.964306",
      "detail": ""
    },
    {
      "name": "燧ヶ岳",
      "yomi": "ひうちがたけ",
      "name_en": "Mt. Hiuchigatake",
      "elevation": "2356",
      "lat": "36.955028",
      "lon": "139.285389",
      "detail": "・ヒウチの名は火打ちで、火山に由来と言われている。\r\n・会津駒ヶ岳側から望むと「火打ちばさみ」の雪形が見られるとの説もある。\r\n・燧ヶ岳の山頂には、「燧大権現（カツラギヒトコヌシ神）」の祠が祀られている。"
    },
    {
      "name": "至仏山",
      "yomi": "しぶつさん",
      "name_en": "Mt. Shibutsusan",
      "elevation": "2228",
      "lat": "36.903361",
      "lon": "139.173167",
      "detail": "2016年5月7日～6月30日の期間は登山道閉鎖期間です。\r\n鳩待峠から、山の鼻から両方とも閉鎖されています。"
    },
    {
      "name": "谷川岳",
      "yomi": "たにがわだけ",
      "name_en": "Mt. Tanigawadake",
      "elevation": "1977",
      "lat": "36.83725",
      "lon": "138.930139",
      "detail": "双耳峰である谷川岳の2つの山頂のうち、奥の山頂「オキの耳」。「オキ」とは「奥」が訛った物とされる。"
    },
    {
      "name": "武尊山",
      "yomi": "ほたかやま",
      "name_en": "Mt. Hotakayama",
      "elevation": "2158",
      "lat": "36.805306",
      "lon": "139.132611",
      "detail": ""
    },
    {
      "name": "苗場山",
      "yomi": "なえばさん",
      "name_en": "Mt. Naebasan",
      "elevation": "2145",
      "lat": "36.845861",
      "lon": "138.690444",
      "detail": ""
    },
    {
      "name": "筑波山",
      "yomi": "つくばさん",
      "name_en": "Mt. Tsukubasan",
      "elevation": "877",
      "lat": "36.225389",
      "lon": "140.106722",
      "detail": ""
    },
    {
      "name": "皇海山",
      "yomi": "すかいさん",
      "name_en": "Mt. Sukaisan",
      "elevation": "2144",
      "lat": "36.689778",
      "lon": "139.337056",
      "detail": ""
    },
    {
      "name": "赤城山",
      "yomi": "あかぎやま",
      "name_en": "Mt. Akagiyama",
      "elevation": "1828",
      "lat": "36.560333",
      "lon": "139.193167",
      "detail": "呼称は、本来は「あかぎやま」だが「あかぎさん」とも呼ばれる。\r\n赤城山は、黒檜山・駒ヶ岳・地蔵岳・長七郎岳・荒山・鍋割山・鈴ヶ岳・小黒檜山などの山域の総称である。"
    },
    {
      "name": "両神山",
      "yomi": "りょうかみさん",
      "name_en": "Mt. Ryoukamisan",
      "elevation": "1723",
      "lat": "36.023444",
      "lon": "138.841278",
      "detail": ""
    },
    {
      "name": "雲取山",
      "yomi": "くもとりやま",
      "name_en": "Mt. Kumotoriyama",
      "elevation": "2017.09",
      "lat": "35.855417",
      "lon": "138.943778",
      "detail": ""
    },
    {
      "name": "丹沢山",
      "yomi": "たんざわさん",
      "name_en": "Mt. Tanzawasan",
      "elevation": "1567",
      "lat": "35.474361",
      "lon": "139.162667",
      "detail": "蛭ヶ岳方面、塔ノ岳方面、三峰・宮ヶ瀬湖方面への分岐\r\n山頂にみやま山荘（http://www.yamareco.com/modules/yamainfo/ptinfo.php?ptid=1775）"
    },
    {
      "name": "甲武信ヶ岳",
      "yomi": "こぶしがたけ",
      "name_en": "Mt. Kobushigatake",
      "elevation": "2475",
      "lat": "35.909028",
      "lon": "138.728806",
      "detail": ""
    },
    {
      "name": "金峰山",
      "yomi": "きんぷさん",
      "name_en": "Mt. Kinpusan",
      "elevation": "2599",
      "lat": "35.871528",
      "lon": "138.625194",
      "detail": "360度の大展望で八ヶ岳、富士山、北アルプス、中央アルプス、南アルプス、浅間山などを大展望できる。また五丈岩に登ろうと思えば登れるが落ちる可能性があるので、岩登りの経験者でなければ登らないほうがいい。"
    },
    {
      "name": "瑞牆山",
      "yomi": "みずがきやま",
      "name_en": "Mt. Mizugakiyama",
      "elevation": "2230",
      "lat": "35.893472",
      "lon": "138.592139",
      "detail": "現在、瑞牆山山頂の三等三角点標石「点名：公望」は亡失。"
    },
    {
      "name": "大菩薩嶺",
      "yomi": "だいぼさつれい",
      "name_en": "Mt. Daibosatsurei",
      "elevation": "2057",
      "lat": "35.748778",
      "lon": "138.845472",
      "detail": ""
    },
    {
      "name": "雨飾山",
      "yomi": "あまかざりやま",
      "name_en": "Mt. Amakazariyama",
      "elevation": "1963",
      "lat": "36.901944",
      "lon": "137.962722",
      "detail": "雨飾山は、長野県北安曇郡小谷村中土（南麓にある雨飾高原）と新潟県糸魚川市梶山（根知谷の奥）との県境に位置します。雨飾山とその周辺の高原や温泉地は、妙高戸隠連山国立公園（※1）に属し、公園の最西端を占めています。また、頸城山塊（くびきさんかい、別称：頸城アルプス※2）の最西端の山でもあります。南麓の長野県側の登山基地は「雨飾高原・小谷温泉」。北麓の新潟県側の登山基地は、根知谷の奥に所在する「雨飾温泉」になります。山頂からは、2本の主要な登山道が南北に伸びていることになります。南麓の長野県側では、小谷温泉（雨飾高原）から『小谷温泉道』に進みます。北麓の新潟県側では、雨飾温泉（旧梶山新湯）から『薬師尾根道（梶尾道）』を登ります。また、小谷村大網（姫川温泉の東隣の集落）から入る登山道（大網道）もあります。\r\n 日本百名山に選定されている「雨飾山」の山頂には、二等三角点「雨飾山」（標高1963.27m）が設置されています。また、山頂部分は小さな双耳峰になっていて、「猫の耳」と呼ばれています。小谷温泉ないし雨飾温泉からの登山道を山頂に向かって進むと、先に「北峰」に辿り着きます。「北峰」には石仏が並んでいます。また、北峰から西方向に下る『大網道』が出ています。北峰からわずか40mほど進むと、山頂である「南峰」に到着します。\r\n\r\n※1：妙高戸隠連山国立公園は、新潟県南部と長野県大北地域にまたがる国立公園です。2015年に上信越高原国立公園から分離して成立したばかりの公園です。「妙高山・焼山と妙高高原」、「黒姫山・戸隠山・飯縄山と飯綱高原」、「野尻湖とその周辺」、「雨飾山と周辺」～を含んでいます。\r\n\r\n※2：頸城山塊（頸城アルプス）は、「妙高戸隠連山国立公園」内にある連峰です。妙高山－火打山－新潟焼山－雨飾山～が主な峰々です。\r\n\r\nーーー＜　アクセス　＞ーーー\r\n\r\n 「北陸道糸魚川IC」からと「長野道安曇野IC」から～の2通りのアクセス方法があります。いずれも、国道158号線から横道に入り、登山口に進みます。\r\n\r\nーーー＜　登山口と登山道　＞ーーー\r\n\r\n①　薬師尾根道（梶山道）の登山口＝雨飾温泉登山口\r\n\r\n 糸魚川ICから約7.5km南下した所の「根知谷口」交差点から、「新潟県道225号線」に入ります。約11.0km進むと、薬師尾根道（別称：梶山道）の登山口がある「雨飾温泉（1軒宿）」に到着です。\r\n\r\n②　大網道（おあみどう）の登山口\r\n\r\n 糸魚川ICから約19km南下した所の「平岩」交差点から、「林道姫川妙高線」に入ります。この林道を約12.3km進むと、大網道の登山口です。この登山口は、雨飾高原の西側に位置し、姫川の支流の横川の上流域になります。\r\n\r\n③　小谷温泉道の登山口＝雨飾高原登山口\r\n\r\n 糸魚川ICから約30km南下した所の「小谷温泉口」交差点から、「長野県道114号線」に入ります。約18.5km進むと、登山口です。途中通過する小谷温泉からは、雨飾高原を4.5kmほど登ると、小谷温泉道の登山口のある雨飾高原キャンプ場に到着します。"
    },
    {
      "name": "妙高山",
      "yomi": "みょうこうさん",
      "name_en": "Mt. Myoukousan",
      "elevation": "2454",
      "lat": "36.891389",
      "lon": "138.113556",
      "detail": "妙高山山頂部は170ｍほど離れた北峰と南峰に分かれており、南峰側に標高2454ｍの最高点がある。\r\n山頂に妙高山大神が祀られている。"
    },
    {
      "name": "火打山",
      "yomi": "ひうちやま",
      "name_en": "Mt. Hiuchiyama",
      "elevation": "2462",
      "lat": "36.922778",
      "lon": "138.068",
      "detail": "頸城山塊の最高峰。山頂は360度の展望が広がる。"
    },
    {
      "name": "高妻山",
      "yomi": "たかづまやま",
      "name_en": "Mt. Takadumayama",
      "elevation": "2353",
      "lat": "36.8",
      "lon": "138.051889",
      "detail": ""
    },
    {
      "name": "草津白根山",
      "yomi": "くさつしらねさん",
      "name_en": "Mt. Kusatsushiranesan",
      "elevation": "2171",
      "lat": "36.62289963817542",
      "lon": "138.53172361850739",
      "detail": "立ち入りは禁止されています。"
    },
    {
      "name": "四阿山",
      "yomi": "あずまやさん",
      "name_en": "Mt. Azumayasan",
      "elevation": "2354",
      "lat": "36.541722",
      "lon": "138.412972",
      "detail": ""
    },
    {
      "name": "浅間山",
      "yomi": "あさまやま",
      "name_en": "Mt. Asamayama",
      "elevation": "2568",
      "lat": "36.406444",
      "lon": "138.522972",
      "detail": "釜山は山頂火口東側にある浅間山の最高点。\r\n火山活動のため立入禁止となっている。"
    },
    {
      "name": "白馬岳",
      "yomi": "しろうまだけ",
      "name_en": "Mt. Shiroumadake",
      "elevation": "2932.24",
      "lat": "36.758611",
      "lon": "137.758583",
      "detail": "・後立山連峰の主峰、山頂直下の南には、日本最大規模の白馬山荘(収容1,200人)がある。高山植物が豊富で、本州でありながら八ヶ岳の硫黄岳と同様にウルップソウが見られる。澄んだ快晴時には、日本海や能登半島を見渡すことができる。日本最大の白馬大雪渓は、夏の遅くまで雪が残り、シーズン最盛期には、蟻の行列状態となる。"
    },
    {
      "name": "五竜岳",
      "yomi": "ごりゅうだけ",
      "name_en": "Mt. Goryuudake",
      "elevation": "2814",
      "lat": "36.658361",
      "lon": "137.75275",
      "detail": ""
    },
    {
      "name": "鹿島槍ヶ岳",
      "yomi": "かしまやりがたけ",
      "name_en": "Mt. Kashimayarigatake",
      "elevation": "2889",
      "lat": "36.624472",
      "lon": "137.746917",
      "detail": ""
    },
    {
      "name": "剱岳",
      "yomi": "つるぎだけ",
      "name_en": "Mt. Tsurugidake",
      "elevation": "2999",
      "lat": "36.623361",
      "lon": "137.617222",
      "detail": "『劔岳 点の記』2009年6月20に公開となった映画　http://www.yamareco.com/modules/amaxoop2/article.php?lid=1370&cid=11\r\n・新田二郎原作の『劔岳 点の記』　http://www.yamareco.com/modules/amaxoop2/article.php?lid=1885&cid=21&cid2=68\r\n・アドバンス山岳ガイド 剱岳八ツ峰 [DVD]　http://www.yamareco.com/modules/amaxoop2/article.php?lid=2057&cid=11"
    },
    {
      "name": "立山",
      "yomi": "たてやま",
      "name_en": "Mt. Tateyama",
      "elevation": "3015",
      "lat": "36.575861",
      "lon": "137.619722",
      "detail": ""
    },
    {
      "name": "薬師岳",
      "yomi": "やくしだけ",
      "name_en": "Mt. Yakushidake",
      "elevation": "2926.01",
      "lat": "36.468917",
      "lon": "137.544722",
      "detail": ""
    },
    {
      "name": "黒部五郎岳",
      "yomi": "くろべごろうだけ",
      "name_en": "Mt. Kurobegoroudake",
      "elevation": "2839.6",
      "lat": "36.392528",
      "lon": "137.54",
      "detail": ""
    },
    {
      "name": "水晶岳",
      "yomi": "すいしょうだけ",
      "name_en": "Mt. Suishoudake",
      "elevation": "2986",
      "lat": "36.426417",
      "lon": "137.602778",
      "detail": "深田百名山の一峰。別称「黒岳」。"
    },
    {
      "name": "鷲羽岳",
      "yomi": "わしばだけ",
      "name_en": "Mt. Washibadake",
      "elevation": "2924.19",
      "lat": "36.403083",
      "lon": "137.605278",
      "detail": ""
    },
    {
      "name": "白山",
      "yomi": "はくさん",
      "name_en": "Mt. Hakusan",
      "elevation": "2702.17",
      "lat": "36.154999487555",
      "lon": "136.77152362712",
      "detail": "・古来より信仰の山として、美濃禅定道、越前禅定道、加賀禅定道から多くの登拝者があった。ハクサンコザクラ、ハクサンフウロなどハクサンと名の付く花は、古く白山で見られたことにより名付けられ白山の固有種ではない。\r\n\r\n・白山頂上（御前峰・ごぜんがみね）には、白山神社奥宮と一等三角点と方位盤がある。山頂周辺（三つのピーク＝御前峰・剣ヶ峰・大汝峰）には7つの火口湖があり、山頂はお池巡りコースの分岐になっている。\r\n\r\n【白山登山の情報ポータルサイト】　\r\n　登山道・登山施設・周辺道路・登山バス情報等\r\n　http://www.kagahakusan.jp/\r\n\r\n【白山室堂】\r\n　http://www.yamareco.com/modules/yamainfo/ptinfo.php?ptid=1310"
    },
    {
      "name": "荒島岳",
      "yomi": "あらしまだけ",
      "name_en": "Mt. Arashimadake",
      "elevation": "1523.5",
      "lat": "35.93425",
      "lon": "136.601222",
      "detail": ""
    },
    {
      "name": "富士山",
      "yomi": "ふじさん",
      "name_en": "Mt. Fuji",
      "elevation": "3776.14",
      "lat": "35.36075",
      "lon": "138.727417",
      "detail": "富士山の最高点、剣ヶ峰（けんがみね）（3776.14m）。\r\n二等三角点（3775.51m）、電子基準点（3777.41m）と標柱、レーダー跡の気象観測所あり。\r\n頂上へは馬の背という急坂を登る。滑りやすい。\r\nお鉢巡りのコース内にあり。"
    },
    {
      "name": "美ヶ原",
      "yomi": "うつくしがはら",
      "name_en": "Mt. Utsukushigahara",
      "elevation": "2034",
      "lat": "36.225917",
      "lon": "138.107444",
      "detail": "美ヶ原は高原地帯全体を指しており、最高峰の王ヶ頭を始め、王ヶ鼻、茶臼山、牛伏山、鹿伏山、武石峰などのピークがある。高原地帯は牛の放牧地にもなっている。\r\n車道は美ヶ原自然保護センター側と、ビーナスラインから山本小屋側まで繋がっているが、その間を結ぶ高原地帯は車での立ち入りは禁止されている。\r\nまた、11月末頃から4月末ごろまでの冬季期間は山頂付近までの道路が通行止めになる。"
    },
    {
      "name": "霧ヶ峰",
      "yomi": "きりがみね",
      "name_en": "Mt. Kirigamine",
      "elevation": "1925",
      "lat": "36.102861",
      "lon": "138.196611",
      "detail": ""
    },
    {
      "name": "蓼科山",
      "yomi": "たてしなやま",
      "name_en": "Mt. Tateshinayama",
      "elevation": "2531",
      "lat": "36.103722",
      "lon": "138.294944",
      "detail": ""
    },
    {
      "name": "赤岳",
      "yomi": "あかだけ",
      "name_en": "Mt. Akadake",
      "elevation": "2899.17",
      "lat": "35.970667",
      "lon": "138.369944",
      "detail": "八ヶ岳の最高峰。\r\n山頂は三つのピークを持ち、それぞれ「北峰」「南峰」「竜頭（りゅうとう）峰」と呼ばれる。\r\n北峰には「赤岳頂上山荘」が立ち、南峰には三角点と赤岳神社の祠がある。この南峰が最高点の2.899.17mである。\r\n竜頭峰は登山ルートから外れており、通常登頂することはないが、頂部には竜頭山の石碑と神像の台座部分が残されている。"
    },
    {
      "name": "槍ヶ岳",
      "yomi": "やりがたけ",
      "name_en": "Mt. Yarigatake",
      "elevation": "3180",
      "lat": "36.342",
      "lon": "137.647778",
      "detail": "・日本で5番目に高い山、北アルプスのスカイツリー。山頂にあった2等三角点は、『成果使用不能』扱いになっている。狭い山頂の北端に祠がある。\r\n・1828年に、播隆上人が初登頂し、開山したとされる。\r\n・山頂直下の南肩に槍ヶ岳山荘（収容650人：北アルプス南部最大規模）がある。\r\n・槍ヶ岳山荘から頂上までは夏山、紅葉シーズン中は特に渋滞必至。鎖場やハシゴ場の手前で待つことも。下りは岩のトラバースあり。落石にも注意を。ヘルメット着用を強くお勧め"
    },
    {
      "name": "穂高岳",
      "yomi": "ほたかだけ",
      "name_en": "Mt. Hotakadake",
      "elevation": "3190",
      "lat": "36.289222",
      "lon": "137.648056",
      "detail": "・北穂高岳（3,106m）\r\n・涸沢岳（3,110m）\r\n・奥穂高岳（3,190m）穂高神社、北アルプス最高峰、日本第3高峰、日本百名山、新日本百名山\r\n・前穂高岳（3,090m）一等三角点\r\n・西穂高岳（2,909m）花の百名山\r\nなどの総称"
    },
    {
      "name": "常念岳",
      "yomi": "じょうねんだけ",
      "name_en": "Mt. Jounendake",
      "elevation": "2857",
      "lat": "36.325611",
      "lon": "137.7275",
      "detail": "・常念山脈の主峰、安曇野から望む三角錐の山容が特長、東側の前常念岳に一等三角点がある"
    },
    {
      "name": "笠ヶ岳",
      "yomi": "かさがたけ",
      "name_en": "Mt. Kasagatake",
      "elevation": "2897",
      "lat": "36.315611",
      "lon": "137.550278",
      "detail": ""
    },
    {
      "name": "焼岳",
      "yomi": "やけだけ",
      "name_en": "Mt. Yakedake",
      "elevation": "2455",
      "lat": "36.226722",
      "lon": "137.586944",
      "detail": "焼岳は南峰と北峰があり、南峰が最高地点。2等三角点2455.5ｍがある。\r\n南峰は「立入禁止」となっている。理由は「急で危険だから」らしい。\r\n積雪期登山で南尾根からの登山記事が、ネット上に多く見られる。"
    },
    {
      "name": "乗鞍岳",
      "yomi": "のりくらだけ",
      "name_en": "Mt. Norikuradake",
      "elevation": "3025.64",
      "lat": "36.106472",
      "lon": "137.553611",
      "detail": ""
    },
    {
      "name": "御嶽山",
      "yomi": "おんたけさん",
      "name_en": "Mt. Ontakesan",
      "elevation": "3067",
      "lat": "35.892889",
      "lon": "137.480306",
      "detail": "木曽御嶽山のエリアは、甲信越（槍・穂高・乗鞍）。\r\n木曽川を挟んで中央アルプスと対峙する独立峰である。乗鞍火山帯の最南部の活火山（気象庁の火山情報 http://www.seisvol.kishou.go.jp/tokyo/312_Ontakesan/312_index.html ）で、北アルプスに含むとする説もある。山と溪谷社などの書籍構成分類などが悪影響となり、中央アルプスと混同する人が多い。\r\n\r\n★★★ヤマレコの山行記録登録時のエリアに注意しましょう。\r\n御嶽山の山行記録のエリア→　甲信越（槍・穂高・乗鞍）★★★"
    },
    {
      "name": "木曽駒ヶ岳",
      "yomi": "きそこまがたけ",
      "name_en": "Mt. Kisokomagatake",
      "elevation": "2956",
      "lat": "35.789583",
      "lon": "137.804444",
      "detail": "木曽山脈（中央アルプス）の最高峰"
    },
    {
      "name": "空木岳",
      "yomi": "うつぎだけ",
      "name_en": "Mt. Utsugidake",
      "elevation": "2864",
      "lat": "35.719028",
      "lon": "137.817222",
      "detail": "2013-06-04 23:01 - oyaji56　\r\n\r\n　山頂には二等三角点が有り、三角点名は「駒ヶ岳」であるため空木岳の名前は比較的新しいことが分かる。昭和２年（１９２７年）の陸地測量部５万分の１の地形図では山名は「前駒ヶ岳」と表示されています。(jj0jvl)"
    },
    {
      "name": "恵那山",
      "yomi": "えなさん",
      "name_en": "Mt. Enasan",
      "elevation": "2191",
      "lat": "35.443611111111",
      "lon": "137.59722222222",
      "detail": "　恵那山の山頂は、隆起準平原を遺すかまぼこ型で標高は南側の一等三角点は2,190.3mですが、地形図には山頂小屋北西側の100mほどのところに2191mと表示されており、この場所が恵那山の公式標高です。（国土地理院「日本の山岳標高一覧 －1003山－」）\r\n　また、深田久弥氏の「日本百名山」で書かれている山頂（展望地）は山頂小屋を登った所の岩場、「三乃宮社　神明社」および「四乃宮社　熊野社」と思われます。\r\n　恵那山は、地形的には木曽山脈(中央アルプス)ではなく三河高原の北東端に位置付けられ、中央アルプスの南端部と恵那山がある三河高原地塊とは横ずれ断層による隆起部と盆地部とにブロック化しています。（JJ0JVL)\r\n\r\n・登山ルート（①広河原ルート②神坂峠ルート③黒井沢ルート④前宮ルート）\r\n・山頂の最高点の場所が特定しにくい\r\n・山頂の南東500mに一等三角点と展望櫓がある。周りに高い針葉樹があり展望はあまりない。\r\n・山頂付近南東に恵那山頂避難小屋があり、その裏の岩の上からは展望が良い。\r\n・山頂付近は6月初旬まで残雪が残ることが多い。"
    },
    {
      "name": "甲斐駒ヶ岳",
      "yomi": "かいこまがたけ",
      "name_en": "Mt. Kaikomagatake",
      "elevation": "2967",
      "lat": "35.757917",
      "lon": "138.236639",
      "detail": ""
    },
    {
      "name": "仙丈ヶ岳",
      "yomi": "せんじょうがだけ",
      "name_en": "Mt. Senjougadake",
      "elevation": "3032.56",
      "lat": "35.720139",
      "lon": "138.183583",
      "detail": ""
    },
    {
      "name": "鳳凰山",
      "yomi": "ほうおうざん",
      "name_en": "Mt. Hououzan",
      "elevation": "2841",
      "lat": "35.701806",
      "lon": "138.304694",
      "detail": "「鳳凰山」は深田久弥氏が「日本百名山」として選定したときの呼称であり、実際には「鳳凰山」という山は存在しない。国土地理院の正式名称は「観音ヶ岳」となっている。「観音岳」とも呼称される。\r\n地蔵ヶ岳、薬師ヶ岳と合わせて「鳳凰三山」と呼ばれる。\r\n山頂には二等三角点、基準点名「観音岳」があるが、破損し「1974年以降観測されていない」状態である。"
    },
    {
      "name": "北岳",
      "yomi": "きただけ",
      "name_en": "Mt. Kitadake",
      "elevation": "3193.2",
      "lat": "35.674583",
      "lon": "138.238861",
      "detail": "・日本の第2高峰で、南アルプス最高峰。\r\n【山小屋】\r\n・北側に北岳肩の小屋 http://www.yamareco.com/modules/yamainfo/ptinfo.php?ptid=1730\r\n・南側に北岳山荘 http://www.yamareco.com/modules/yamainfo/ptinfo.php?ptid=1731\r\n【NHKエコチャンネル】北岳 ～日本第二の高峰～ （NHKエコチャンネル） http://cgi4.nhk.or.jp/eco-channel/jp/movie/play.cgi?did=D0013772277_00000"
    },
    {
      "name": "間ノ岳",
      "yomi": "あいのだけ",
      "name_en": "Mt. Ainodake",
      "elevation": "3189.5",
      "lat": "35.646",
      "lon": "138.228306",
      "detail": "・2014年4月1日に基準点の標高改定（三等三角点「相ノ岳」3189.13→3189.50m、基準点成果等閲覧サービス http://sokuseikagis1.gsi.go.jp/ ）"
    },
    {
      "name": "天城山",
      "yomi": "あまぎさん",
      "name_en": "Mt. Amagisan",
      "elevation": "1406",
      "lat": "34.862839670965",
      "lon": "139.00178074837",
      "detail": ""
    },
    {
      "name": "塩見岳",
      "yomi": "しおみだけ",
      "name_en": "Mt. Shiomidake",
      "elevation": "3046.86",
      "lat": "35.573778",
      "lon": "138.183028",
      "detail": ""
    },
    {
      "name": "悪沢岳",
      "yomi": "わるさわだけ",
      "name_en": "Mt. Warusawadake",
      "elevation": "3141",
      "lat": "35.500722",
      "lon": "138.182472",
      "detail": "荒川岳（荒川三山）の最高峰。"
    },
    {
      "name": "赤石岳",
      "yomi": "あかいしだけ",
      "name_en": "Mt. Akaishidake",
      "elevation": "3120.53",
      "lat": "35.461278",
      "lon": "138.157472",
      "detail": "・2014年4月1日に基準点の標高改定（一等三角点「赤石岳」3120.06→3120.53、基準点成果等閲覧サービス http://sokuseikagis1.gsi.go.jp/ ）"
    },
    {
      "name": "聖岳",
      "yomi": "ひじりだけ",
      "name_en": "Mt. Hijiridake",
      "elevation": "3013",
      "lat": "35.422667",
      "lon": "138.139694",
      "detail": ""
    },
    {
      "name": "光岳",
      "yomi": "てかりだけ",
      "name_en": "Mt. Tekaridake",
      "elevation": "2591",
      "lat": "35.33825",
      "lon": "138.083889",
      "detail": ""
    },
    {
      "name": "伊吹山",
      "yomi": "いぶきやま",
      "name_en": "Mt. Ibukiyama",
      "elevation": "1377.31",
      "lat": "35.417917",
      "lon": "136.40625",
      "detail": "・伊吹山入山協力金（任意）：一人300円（登山口で支払う。無人の場合は協力金箱へ）平成27年5月より本格導入\r\nhttp://www.city.maibara.lg.jp/0000005029.html\r\n・伊吹山には環境保全のためのローカルルールがある。頂上付近での火の使用禁止、テント泊禁止など。\r\nhttp://www.city.maibara.lg.jp/0000005679.html\r\n・山頂には伝説の日本武尊像（ヤマトタケルノミコト）と、一等三角点がある。山頂の測候所は2001年にその役目を終了。\r\n・伊吹山ドライブウェイの駐車場から遊歩道があり、その周辺はお花畑になっている。伊吹山ドライブウェイの路上は、歩行禁止となっている。\r\n・昔から豪雪で知られ、1927年2月14日に、世界山岳気象観測史上1位とされる積雪の世界記録である11.82mの積雪量が観測されたが、近年積雪量は地球温暖化に伴い激減している。3合目のスキー場も廃止されゴンドラも営業休止が続いている。（2011年度現在）\r\n・一般登山道は、上野登山口からの1本のみで、年中登山者が絶えない。山頂の神社の社務所が緊急避難場所として、年中解放されている。\r\n\r\n【伊吹山ドライブウェイHP】http://www.ibukiyama-driveway.jp/\r\n【伊吹山の登山MAP】http://www.harinko.com/index/ibukiyama/ibukiyama.html\r\n【伊吹山の植物】http://commons.wikimedia.org/wiki/Category:Flora_of_Mount_Ibuki"
    },
    {
      "name": "大峰山",
      "yomi": "おおみねさん",
      "name_en": "Mt. Oominesan",
      "elevation": "1914.6",
      "lat": "34.173583",
      "lon": "135.907444",
      "detail": "近畿地方・大峰山脈の最高峰。"
    },
    {
      "name": "大台ヶ原山",
      "yomi": "おおだいがはらやま",
      "name_en": "Mt. Oodaigaharayama",
      "elevation": "1695",
      "lat": "34.185278",
      "lon": "136.109083",
      "detail": "一等三角点。別名・日出ヶ岳。三重県の最高地点。\r\n頂上に東屋機能を追加した展望台が設置されている。\r\nガスなどで視界が悪い時は遊歩道から大杉谷方向に迷うことが多いので注意を要する。"
    },
    {
      "name": "剣ヶ峰",
      "yomi": "けんがみね",
      "name_en": "Mt. Kengamine",
      "elevation": "1729",
      "lat": "35.371194",
      "lon": "133.54625",
      "detail": ""
    },
    {
      "name": "剣山",
      "yomi": "つるぎざん",
      "name_en": "Mt. Tsurugizan",
      "elevation": "1955",
      "lat": "33.853611",
      "lon": "134.094278",
      "detail": ""
    },
    {
      "name": "石鎚山",
      "yomi": "いしづちさん いしづちやま",
      "name_en": "Mt. Ishiduchisan ishiduchiyama",
      "elevation": "1982",
      "lat": "33.767778",
      "lon": "133.114917",
      "detail": "西日本の最高峰、石鎚山の最高点ピーク。\r\n弥山～天狗岳の稜線は細く、両側ともに深く切れ落ちているので転落に注意。特に強風時の通行は大変危険。"
    },
    {
      "name": "阿蘇山",
      "yomi": "あそさん",
      "name_en": "Mt. Asosan",
      "elevation": "1592.3",
      "lat": "32.884194",
      "lon": "131.104028",
      "detail": ""
    },
    {
      "name": "九重山",
      "yomi": "くじゅうさん",
      "name_en": "Mt. Kujuusan",
      "elevation": "1791",
      "lat": "33.085861",
      "lon": "131.249",
      "detail": "『九重山』は久住山(1786.6ｍ)や大船山(1786.4ｍ)などの九重火山群の総称。\r\n最高峰は1791ｍの「中岳」。"
    },
    {
      "name": "祖母山",
      "yomi": "そぼさん",
      "name_en": "Mt. Sobosan",
      "elevation": "1756",
      "lat": "32.828111",
      "lon": "131.347056",
      "detail": ""
    },
    {
      "name": "霧島山",
      "yomi": "きりしまやま",
      "name_en": "Mt. Kirishimayama",
      "elevation": "1700",
      "lat": "31.934306",
      "lon": "130.861583",
      "detail": "霧島山は宮崎・鹿児島県境に広がる火山群の総称。\r\n最高峰は1700ｍの韓国岳。"
    },
    {
      "name": "開聞岳",
      "yomi": "かいもんだけ",
      "name_en": "Mt. Kaimondake",
      "elevation": "924",
      "lat": "31.180194",
      "lon": "130.528306",
      "detail": ""
    },
    {
      "name": "宮之浦岳",
      "yomi": "みやのうらだけ",
      "name_en": "Mt. Miyanouradake",
      "elevation": "1936",
      "lat": "30.336111",
      "lon": "130.504167",
      "detail": ""
    }  
  ]
}